{"type": "FeatureCollection", "features": [{"type": "Feature", "id": 287, "geometry": {"type": "Polygon", "coordinates": [[[24.9142499, 60.2281265], [24.9143803, 60.2283096], [24.9150998, 60.2291575], [24.9164829, 60.2294014], [24.9169165, 60.2294496], [24.9182743, 60.2291999], [24.9193332, 60.228271], [24.9197467, 60.2280377], [24.9208825, 60.2270956], [24.9208707, 60.2270924], [24.9194224, 60.2266946], [24.917981, 60.2266048], [24.9161374, 60.2268655], [24.9148782, 60.2273401], [24.9142499, 60.2281265]]]}, "properties": {"mtk_id": 416754311, "sijaintitarkkuus": 7500, "aineistolahde": 1, "alkupvm": "2025-03-24", "kohderyhma": 64, "kohdeluokka": 32200, "sijainti_piste": {"type": "Point", "coordinates": [24.9168254, 60.2280901]}}}]}