{"type": "FeatureCollection", "features": [{"type": "Feature", "id": 388855, "geometry": {"type": "Polygon", "coordinates": [[[24.9066628, 60.2402902], [24.9066636, 60.2403096], [24.9066687, 60.2403274], [24.9066775, 60.2403448], [24.9066884, 60.2403619], [24.9067135, 60.2403955], [24.9067168, 60.2403996], [24.9067312, 60.240416], [24.9067472, 60.2404321], [24.9067654, 60.2404476], [24.9067887, 60.2404613], [24.9068181, 60.2404716], [24.9068507, 60.2404774], [24.9068863, 60.2404803], [24.9069221, 60.2404825], [24.9069372, 60.2404836], [24.9070443, 60.2404912], [24.9070804, 60.2404912], [24.9071158, 60.2404878], [24.9071478, 60.2404797], [24.9071649, 60.2404719], [24.9071849, 60.240457], [24.9071987, 60.2404404], [24.9072084, 60.2404231], [24.9072147, 60.2404055], [24.9072178, 60.2403907], [24.9072189, 60.2403728], [24.9072172, 60.2403549], [24.9072128, 60.2403371], [24.9072067, 60.2403194], [24.9071909, 60.2402844], [24.9071826, 60.2402689], [24.9071723, 60.2402517], [24.9071606, 60.2402348], [24.9071472, 60.2402181], [24.907131, 60.240202], [24.907112, 60.2401868], [24.9070904, 60.2401724], [24.9070799, 60.2401662], [24.9070551, 60.2401532], [24.9070282, 60.2401413], [24.9069992, 60.2401306], [24.9069683, 60.2401213], [24.9069352, 60.2401142], [24.9068999, 60.2401107], [24.9068641, 60.2401124], [24.906857, 60.2401135], [24.9068254, 60.240122], [24.9067995, 60.2401344], [24.9067782, 60.2401489], [24.9067591, 60.2401641], [24.9067415, 60.2401798], [24.906725, 60.2401958], [24.906716, 60.2402051], [24.906701, 60.2402214], [24.9066872, 60.240238], [24.9066752, 60.2402549], [24.9066668, 60.2402724], [24.9066628, 60.2402902]]]}, "properties": {"mtk_id": 411240841, "sijaintitarkkuus": 7500, "aineistolahde": 1, "alkupvm": "2025-03-24", "kohderyhma": 64, "kohdeluokka": 35412, "kulkukelpoisuus": 1, "metsaisyys": 1, "sijainti_piste": {"type": "Point", "coordinates": [24.9069331, 60.2403162]}}}]}