{"type": "FeatureCollection", "features": [{"type": "Feature", "id": 1087, "geometry": {"type": "Polygon", "coordinates": [[[24.9224853, 60.2274441], [24.9231778, 60.2277204], [24.9230968, 60.2278406], [24.9231447, 60.2278574], [24.9237678, 60.2280752], [24.9243641, 60.2282837], [24.9249283, 60.2280975], [24.925601, 60.227945], [24.9228863, 60.2271409], [24.9224853, 60.2274441]], [[24.9235352, 60.2277512], [24.9235364, 60.2277444], [24.9235526, 60.2277286], [24.9235638, 60.2277238], [24.9235976, 60.2277179], [24.9236336, 60.2277179], [24.9236696, 60.2277188], [24.923688, 60.227719], [24.9237241, 60.2277184], [24.923868, 60.227713], [24.9238978, 60.2277131], [24.9239336, 60.2277152], [24.9239675, 60.2277213], [24.9239817, 60.2277263], [24.9240077, 60.2277387], [24.9240315, 60.2277522], [24.9240536, 60.2277655], [24.9240749, 60.2277799], [24.9240869, 60.2277967], [24.9240855, 60.227815], [24.9240789, 60.2278327], [24.9240764, 60.2278419], [24.9240706, 60.2278597], [24.9240626, 60.2278713], [24.9240443, 60.2278868], [24.924034, 60.227893], [24.9240068, 60.2279048], [24.9239728, 60.2279097], [24.9239605, 60.2279082], [24.9239274, 60.227901], [24.9239038, 60.2278967], [24.9238694, 60.2278912], [24.9238367, 60.2278837], [24.9238302, 60.2278814], [24.9238049, 60.2278687], [24.9237633, 60.2278394], [24.9237496, 60.2278311], [24.923724, 60.2278184], [24.923695, 60.2278077], [24.9236629, 60.2277997], [24.9236238, 60.2277934], [24.9235903, 60.2277867], [24.9235715, 60.2277808], [24.9235465, 60.227768], [24.9235352, 60.2277512]]]}, "properties": {"mtk_id": 1187790174, "sijaintitarkkuus": 5000, "aineistolahde": 1, "alkupvm": "2025-03-25", "kohderyhma": 64, "kohdeluokka": 32900, "sijainti_piste": {"type": "Point", "coordinates": [24.9245566, 60.2279237]}}}, {"type": "Feature", "id": 1090, "geometry": {"type": "Polygon", "coordinates": [[[24.9278867, 60.2309381], [24.9280588, 60.2310245], [24.928155, 60.2312251], [24.9281476, 60.2313855], [24.9281651, 60.2314948], [24.9281613, 60.2320476], [24.9281699, 60.23235], [24.929286, 60.2323541], [24.9293005, 60.2322417], [24.9293651, 60.2320284], [24.9294193, 60.2318647], [24.9296157, 60.2317657], [24.9298046, 60.2316011], [24.9300541, 60.2314511], [24.9308267, 60.2311744], [24.9308164, 60.2311161], [24.9301365, 60.2309772], [24.9295025, 60.2308093], [24.9290021, 60.2307106], [24.9287501, 60.23047], [24.9282532, 60.230513], [24.9282719, 60.2306676], [24.9282283, 60.2309017], [24.9281, 60.2308999], [24.9280975, 60.2309455], [24.9278867, 60.2309381]], [[24.929497, 60.2312529], [24.9298435, 60.2311806], [24.9300604, 60.2314037], [24.9298776, 60.2314662], [24.9297203, 60.2314993], [24.929497, 60.2312529]], [[24.9282825, 60.2315057], [24.9291842, 60.231508], [24.9291758, 60.2317302], [24.9282759, 60.2317251], [24.9282825, 60.2315057]]]}, "properties": {"mtk_id": 411226127, "sijaintitarkkuus": 7500, "aineistolahde": 1, "alkupvm": "2025-03-25", "kohderyhma": 64, "kohdeluokka": 32900, "sijainti_piste": {"type": "Point", "coordinates": [24.9288466, 60.2310915]}}}]}